{
  "type": "FeatureCollection",
  "features": [
    {
      "type": "Feature",
      "properties": {
        "norad_id": 19071,
        "name": "OSCAR 32",
        "group": "nnss",
        "lat": 59.21668018373812,
        "lon": 16.424470544376504,
        "alt_km": 1093.8500751245228,
        "timestamp": "2025-12-26T21:25:53.279016+00:00",
        "meta_object_name": "OSCAR 32",
        "meta_object_id": "1988-033B",
        "meta_epoch": "2025-12-26T10:53:58.879680",
        "meta_mean_motion": 13.27955937,
        "meta_eccentricity": 0.01893107,
        "meta_inclination": 90.3209,
        "meta_ra_of_asc_node": 16.9498,
        "meta_arg_of_pericenter": 128.8267,
        "meta_mean_anomaly": 355.8113,
        "meta_ephemeris_type": 0,
        "meta_classification_type": "U",
        "meta_norad_cat_id": 19071,
        "meta_element_set_no": 999,
        "meta_rev_at_epoch": 82447,
        "meta_bstar": 0.0001395573,
        "meta_mean_motion_dot": 7.9e-07,
        "meta_mean_motion_ddot": 0,
        "tle_line1": "1 19071U 88033B   25360.45415370  .00000079  00000+0  13956-3 0  9997",
        "tle_line2": "2 19071  90.3209  16.9498 0189310 128.8267 355.8113 13.27955937824478"
      },
      "geometry": {
        "type": "Point",
        "coordinates": [
          16.424470544376504,
          59.21668018373812
        ]
      }
    },
    {
      "type": "Feature",
      "properties": {
        "norad_id": 19223,
        "name": "NOVA 2",
        "group": "nnss",
        "lat": 3.2120684524477037,
        "lon": 78.25527338409343,
        "alt_km": 1155.9764126830742,
        "timestamp": "2025-12-26T21:25:53.279026+00:00",
        "meta_object_name": "NOVA 2",
        "meta_object_id": "1988-052A",
        "meta_epoch": "2025-12-26T12:23:46.849344",
        "meta_mean_motion": 13.22937569,
        "meta_eccentricity": 0.00294231,
        "meta_inclination": 89.9863,
        "meta_ra_of_asc_node": 78.255,
        "meta_arg_of_pericenter": 338.6148,
        "meta_mean_anomaly": 32.6671,
        "meta_ephemeris_type": 0,
        "meta_classification_type": "U",
        "meta_norad_cat_id": 19223,
        "meta_element_set_no": 999,
        "meta_rev_at_epoch": 81130,
        "meta_bstar": 0.00012017844,
        "meta_mean_motion_dot": 5.9e-07,
        "meta_mean_motion_ddot": 0,
        "tle_line1": "1 19223U 88052A   25360.51651446  .00000059  00000+0  12018-3 0  9996",
        "tle_line2": "2 19223  89.9863  78.2550 0029423 338.6148  32.6671 13.22937569811307"
      },
      "geometry": {
        "type": "Point",
        "coordinates": [
          78.25527338409343,
          3.2120684524477037
        ]
      }
    },
    {
      "type": "Feature",
      "properties": {
        "norad_id": 19419,
        "name": "OSCAR 25",
        "group": "nnss",
        "lat": 1.4549265795644022,
        "lon": 20.2888781441926,
        "alt_km": 1167.5832869030364,
        "timestamp": "2025-12-26T21:25:53.279036+00:00",
        "meta_object_name": "OSCAR 25",
        "meta_object_id": "1988-074A",
        "meta_epoch": "2025-12-26T13:18:28.068192",
        "meta_mean_motion": 13.42625822,
        "meta_eccentricity": 0.00953169,
        "meta_inclination": 90.0336,
        "meta_ra_of_asc_node": 20.2886,
        "meta_arg_of_pericenter": 205.9306,
        "meta_mean_anomaly": 320.1104,
        "meta_ephemeris_type": 0,
        "meta_classification_type": "U",
        "meta_norad_cat_id": 19419,
        "meta_element_set_no": 999,
        "meta_rev_at_epoch": 82825,
        "meta_bstar": 0.00014338017,
        "meta_mean_motion_dot": 9.2e-07,
        "meta_mean_motion_ddot": 0,
        "tle_line1": "1 19419U 88074A   25360.55449153  .00000092  00000+0  14338-3 0  9995",
        "tle_line2": "2 19419  90.0336  20.2886 0095316 205.9306 320.1104 13.42625822828253"
      },
      "geometry": {
        "type": "Point",
        "coordinates": [
          20.2888781441926,
          1.4549265795644022
        ]
      }
    },
    {
      "type": "Feature",
      "properties": {
        "norad_id": 19420,
        "name": "OSCAR 31",
        "group": "nnss",
        "lat": -63.731766515983615,
        "lon": -159.42966466170847,
        "alt_km": 1056.6871561646722,
        "timestamp": "2025-12-26T21:25:53.279046+00:00",
        "meta_object_name": "OSCAR 31",
        "meta_object_id": "1988-074B",
        "meta_epoch": "2025-12-26T11:51:56.301696",
        "meta_mean_motion": 13.42586778,
        "meta_eccentricity": 0.00937157,
        "meta_inclination": 90.0354,
        "meta_ra_of_asc_node": 20.6407,
        "meta_arg_of_pericenter": 200.2518,
        "meta_mean_anomaly": 277.3694,
        "meta_ephemeris_type": 0,
        "meta_classification_type": "U",
        "meta_norad_cat_id": 19420,
        "meta_element_set_no": 999,
        "meta_rev_at_epoch": 82835,
        "meta_bstar": 0.00010498182,
        "meta_mean_motion_dot": 7e-07,
        "meta_mean_motion_ddot": 0,
        "tle_line1": "1 19420U 88074B   25360.49440164  .00000070  00000+0  10498-3 0  9992",
        "tle_line2": "2 19420  90.0354  20.6407 0093715 200.2518 277.3694 13.42586778828356"
      },
      "geometry": {
        "type": "Point",
        "coordinates": [
          -159.42966466170847,
          -63.731766515983615
        ]
      }
    }
  ]
}